#dP2023  9 12  6  0  0.00000000      96 __u+U ITR00 EXT  IAC
## 2279 194400.00000000   900.00000000 60199 0.2500000000000
+  118   C06C07C08C09C10C11C12C13C14C16C19C20C21C22C23C24C25
+        C26C27C28C29C30C32C33C34C35C36C37C38C39C40C41C42C43
+        C44C45C46E02E03E04E05E07E08E09E10E11E12E13E14E15E18
+        E19E21E24E25E26E27E30E31E33E34E36G01G02G03G04G05G06
+        G07G08G09G10G11G12G13G14G15G16G17G18G19G20G21G22G23
+        G24G25G26G27G28G29G30G31G32J02J03J04R01R02R03R04R05
+        R07R08R09R11R12R13R14R15R16R17R18R19R20R21R22R24  0
++        11  8 10 10  9  9  9 10  8 11  8  8  9  8  8  8  9
++         7  9  8  9  8  8  7  7  8  8  8 10 10 10  9  8  9
++         8  9  9  8  8  7  8  8  8  8  8  8  9  7  8  8  8
++         8  7  8  8  7  8  8  8  8  8  8  7  7  7  7  7  7
++         8  9  8  7  8  7  7  7  8  8  7  7  7  7  8  7  7
++         7  7  8  8  8  7  7  8  7  9 10 10  8  7  8  8  8
++         9  7  8  8  8  8  9  8  8  8  8  9 10 10  8  9  0
%c M  cc GPS ccc cccc cccc cccc cccc ccccc ccccc ccccc ccccc
%c cc cc ccc ccc cccc cccc cccc cccc ccccc ccccc ccccc ccccc
%f  0.0000000  0.000000000  0.00000000000  0.000000000000000
%f  0.0000000  0.000000000  0.00000000000  0.000000000000000
%i    0    0    0    0      0      0      0      0         0
%i    0    0    0    0      0      0      0      0         0
/* IAC                                ULTRA-RAPID PREDICTION
/* S/V CLOCKS ARE ALIGNED TO GNSS TIME                      
/* G:C1WC2W R:C1PC2P E:C1XC5X C:C2IC6I J:C1CC2S             
/* PCV:IGS20_2274 OL/AL:FES2004  NONE     YN ORB:CoN CLK:CoN
*  2023 09 12 14 30  0.00000000
PC06 -18044.743115  31909.116141  20618.281742     33.101097
PC07  -5491.293769  38182.562624  17345.509503     26.629615
PC08  -5608.690259  19785.250351 -36820.418699    348.659820
PC09 -10987.356594  30607.643161  26945.469242    175.159492
PC10    547.706448  40911.744900  11650.939110   -176.016048
PC11  19873.790928  -4139.659829 -19065.533968    828.378766
PC12   8242.589137  13808.021802 -22769.404978    941.453599
PC13   1474.018545  23091.803364 -35067.370640    350.588311
PC14  17734.350340   5978.773953  20723.539086    393.297995
PC16 -21835.220191  31553.995495  17357.687480    -76.913902
PC19 -14952.032391   4781.839847 -23056.928097   -970.429370
PC20 -17703.387226 -14073.736809 -16328.854537    289.160893
PC21   9917.316628  26081.345093   -919.509079   -968.252316
PC22  -3481.131899  21954.198191 -16897.947504   -310.654582
PC23  12506.830457 -13537.336377 -20942.188541   -874.161924
PC24  24764.881112   9608.230307   8502.795246    384.647005
PC25  25912.720807  -3974.164796  -9541.063833    209.717142
PC26  10076.087075  15996.858163  20502.120506   -176.664528
PC27  -1321.814721 -20036.158582  19361.993534    198.167120
PC28  13086.971110 -23773.309292   6490.189753    148.637443
PC29 -20846.584597  13767.067174  12437.403243    173.567505
PC30 -15590.806223  -5361.835911  22506.891238     -4.814341
PC32 -10034.493697 -26012.321926   1053.169493   -528.832602
PC33  15014.393002  -4725.963738  23037.492617   -963.982298
PC34  16454.350912   3945.102899 -22203.899061    257.906466
PC35 -12250.259993  24235.998117  -6370.658763    548.024407
PC36 -26330.956164   2829.987992   8842.639780   -229.662998
PC37  -8833.723366 -16331.060247 -20824.098666   -825.980599
PC38 -14880.283234  18552.572206 -34812.708046    104.314144
PC39 -24681.763402  32053.138120  11472.542353     -4.751344
PC40  -9720.583998  35322.684885  21128.232318    -36.246330
PC41   3998.045097 -21476.246129  17404.051845   -879.114512
PC42  17597.634127  15416.772167  15264.501714   -549.480552
PC43  20977.709214 -12934.759606 -13113.353654     39.421722
PC44   2048.429438  20142.020120 -19207.694028    229.222792
PC45 -11964.256970  13622.499762  21224.431837    -24.737349
PC46 -25428.683299  -8886.988056  -7369.219021    -83.723696
PE02 -11179.278758  12513.473692  24388.176311     62.161823
PE03 -12624.025899  24157.775914 -11565.313989    -55.200592
PE04    403.521975 -28808.561274  -6784.001148   -210.479279
PE05 -17528.931759   5420.385003 -23230.551663     17.703059
PE07  11993.715020  16887.655873  21149.361981    -74.300957
PE08   -734.541168  28903.155726   6369.145885   -145.099835
PE09 -11824.766429 -16971.179629 -21171.880556   -153.863030
PE10  -8905.213013 -13646.936829  24703.595592   -563.204203
PE11 -19229.832794  -7636.979600  21154.868980   2914.962316
PE12   1798.533754 -17156.141849  24049.858385   -694.776535
PE13  18598.911028   8027.950026 -21580.079379    -19.622844
PE14   7394.431013  26916.535584 -16565.150457    338.307399
PE15  -2276.761473  17188.905629 -23987.781527    -52.665294
PE18  -8061.788528 -16721.102117  14544.777713    522.575564
PE19  13792.020640 -22324.754330  13698.242174  -1646.794839
PE21  23401.906291   3987.835728 -17674.900683   -552.198580
PE24 -22355.109276 -19417.064297   -201.485020   -317.611141
PE25 -23530.824663  -4304.044243  17447.453132     -1.706343
PE26  28355.154240  -6112.942812  -5864.808558    220.370782
PE27  22663.679165  19030.841035   -366.169029   -148.166422
PE30   8096.875597  22671.032329  17213.720467   -494.268329
PE31  -8607.650821 -22689.923984 -16935.823072     -4.919113
PE33  21960.769580 -15951.401734  11789.037377     -0.595202
PE34 -21492.112771  16208.670219 -12337.897252    -66.655730
PE36 -28293.486971   5697.562507   6579.731249   -115.067529
PG01   -908.132477  15374.551734 -21931.407164    165.671004
PG02  -8452.894690  17097.753386 -17909.816516   -554.802764
PG03   8728.155912  20634.570727 -14496.152962   -139.150025
PG04    461.339358  24956.993777   8903.497174    153.839784
PG05   5723.092722 -14331.050680  21423.051575   -142.441131
PG06  25671.433316  -5174.144478  -4663.338525    551.507297
PG07  16600.871527   8980.665000  19340.686760     69.299547
PG08  -5646.329592  25661.220040   1795.499706   -141.882390
PG09   7833.272703  19758.967406  15812.902239    -61.706582
PG10 -22130.914493  -8695.921500 -11984.487790    -53.107868
PG11  21855.238990 -12377.775859   8568.577890   -365.229040
PG12  -3868.854218 -20471.255041 -16791.551575   -423.919046
PG13  13349.173934 -21251.321876   8163.368117    571.647295
PG14  22151.711518  11534.057443  -9260.052071    182.719618
PG15   1745.197851 -26353.376995    459.566527     76.813204
PG16 -11618.814920   9551.232593  21592.819207   -455.220540
PG17  14355.935447   3403.934474 -21652.261794    723.684224
PG18 -18195.470254  -7091.475848  18088.647867   -414.855421
PG19  16247.669597  -5057.393832 -20504.682286    370.509813
PG20  15725.654331  -7253.333919  20124.946187    412.263664
PG21 -10434.500468  17100.457798 -16433.135301    149.046653
PG22  20424.448262   6200.059474 -15166.402549    123.234736
PG23 -20714.220145 -16772.151345   -430.478468     67.403071
PG24   4748.070356 -17778.398684 -19386.780293   -317.384799
PG25 -16334.673278 -20155.414310  -6628.809705    467.363243
PG26 -19527.754127   1884.355769  17936.444502    228.842374
PG27 -12652.524541  19217.677967  12643.810963    -38.254935
PG28 -25296.799239   4531.922777  -6732.419107     -8.819440
PG29  -5962.166455 -19927.279085  16409.660909   -609.209938
PG30  23574.088340   1859.974825  12474.910631   -488.430428
PG31 -24619.851075  10035.906832   3097.740788   -223.268953
PG32 -15467.983318   1458.371385 -21338.349357   -556.720595
PJ02 -26683.431688  21448.242632  29723.303914     -3.906081
PJ03 -35584.882416  22269.637893    249.010561     -2.617087
PJ04 -19418.717047  27331.655358 -20456.677462     70.594624
PR01  10824.767977  19178.268278  12875.426856     65.493076
PR02  11290.847581   2086.320780  22808.639025    -22.427456
PR03   5822.252953 -16058.513136  19009.423064     85.084290
PR04  -2618.839081 -24905.260213   4922.317339    202.516632
PR05  -9621.350272 -20441.427770 -11865.309484    118.904582
PR07  -5444.697295  16678.700236 -18458.893426     64.502190
PR08   2906.231852  24891.807949  -4605.160411    -72.515106
PR09 -24179.422818  -3472.270424   7224.402941    141.868849
PR11   2567.108386  11957.125397  22401.545821   -160.897067
PR12  20015.993007  11786.381573  10556.275696     31.201686
PR13  24473.737554   4995.599750  -5179.301909    -39.123598
PR14  14207.247505  -5876.324099 -20342.939591     25.257823
PR15  -3869.060893 -12359.888028 -21949.538745     86.263256
PR16 -19936.026059 -11635.040386 -10802.032926     18.620480
PR17  18588.343699 -17354.567120   1622.112000     16.689765
PR18   8524.060714 -17292.946757  16739.341733    101.573366
PR19  -4526.599816  -9603.293432  23192.597301   -246.959126
PR20 -18956.344678   6288.869859  15856.886402    -99.917425
PR21 -18387.163751  17514.482555  -2611.097867    -37.484193
PR22  -8047.604915  16958.484012 -17242.564019     83.786284
PR24  19127.512967  -7223.061393 -15217.924393    -24.080273
EOF
